[
  {
    "icaoId": "EHAM",
    "name": "Amsterdam Schiphol",
    "lat": 52.308,
    "lon": 4.764,
    "rawOb": "EHAM 251025Z 23015KT 9999 FEW025 SCT060 13/08 Q1018",
    "wdir": 230,
    "wspd": 15,
    "wgst": null,
    "visib": "6+",
    "ceiling": 6000,
    "temp": 13,
    "dewp": 8,
    "altim": 1018,
    "wxString": null,
    "fltCat": "VFR"
  },
  {
    "icaoId": "EHRD",
    "name": "Rotterdam The Hague",
    "lat": 51.957,
    "lon": 4.437,
    "rawOb": "EHRD 251025Z 20012KT 5000 BR SCT012 BKN018 11/09 Q1016",
    "wdir": 200,
    "wspd": 12,
    "wgst": null,
    "visib": "4",
    "ceiling": 1800,
    "temp": 11,
    "dewp": 9,
    "altim": 1016,
    "wxString": "BR",
    "fltCat": "MVFR"
  },
  {
    "icaoId": "EBOS",
    "name": "Oostende-Brugge",
    "lat": 51.199,
    "lon": 2.862,
    "rawOb": "EBOS 251025Z 18008KT 1800 FG OVC003 10/09 Q1015",
    "wdir": 180,
    "wspd": 8,
    "wgst": null,
    "visib": "1.1",
    "ceiling": 300,
    "temp": 10,
    "dewp": 9,
    "altim": 1015,
    "wxString": "FG",
    "fltCat": "IFR"
  },
  {
    "icaoId": "LFPG",
    "name": "Paris Charles de Gaulle",
    "lat": 49.013,
    "lon": 2.55,
    "rawOb": "LFPG 251025Z 15005KT 0400 FG OVC001 09/09 Q1013",
    "wdir": 150,
    "wspd": 5,
    "wgst": null,
    "visib": "0.25",
    "ceiling": 100,
    "temp": 9,
    "dewp": 9,
    "altim": 1013,
    "wxString": "FG",
    "fltCat": "LIFR"
  },
  {
    "icaoId": "EDDM",
    "name": "Munich",
    "lat": 48.354,
    "lon": 11.786,
    "rawOb": "EDDM 251025Z 09010KT 8000 SCT035 BKN080 10/04 Q1020",
    "wdir": 90,
    "wspd": 10,
    "wgst": null,
    "visib": "6+",
    "ceiling": 3500,
    "temp": 10,
    "dewp": 4,
    "altim": 1020,
    "wxString": null,
    "fltCat": "VFR"
  },
  {
    "icaoId": "EGLL",
    "name": "London Heathrow",
    "lat": 51.477,
    "lon": -0.461,
    "rawOb": "EGLL 251025Z 25018KT 7000 RA BKN015 OVC025 12/10 Q1008",
    "wdir": 250,
    "wspd": 18,
    "wgst": null,
    "visib": "4.5",
    "ceiling": 1500,
    "temp": 12,
    "dewp": 10,
    "altim": 1008,
    "wxString": "RA",
    "fltCat": "MVFR"
  }
]