[
  {
    "icaoId": "EHAM",
    "rawTAF": "TAF EHAM 251100Z 2512/2618 23015KT 9999 SCT025 TEMPO 2514/2518 23020G30KT 6000 SHRA BKN015"
  },
  {
    "icaoId": "EHRD",
    "rawTAF": "TAF EHRD 251100Z 2512/2618 20010KT 5000 BR BKN018 TEMPO 2516/2520 3000 BR BKN010"
  },
  {
    "icaoId": "EBOS",
    "rawTAF": "TAF EBOS 251100Z 2512/2618 18008KT 1500 FG OVC003 BECMG 2515/2517 9999 NSW SCT020"
  },
  {
    "icaoId": "LFPG",
    "rawTAF": "TAF LFPG 251100Z 2512/2618 15005KT 0400 FG OVC001 BECMG 2514/2516 3000 BR BKN008"
  },
  {
    "icaoId": "EDDM",
    "rawTAF": "TAF EDDM 251100Z 2512/2618 09010KT 9999 SCT035 TEMPO 2518/2522 25015KT 6000 SHRA SCT020 BKN040"
  },
  {
    "icaoId": "EGLL",
    "rawTAF": "TAF EGLL 251100Z 2512/2618 25018KT 7000 RA BKN015 OVC025 TEMPO 2514/2518 25025G35KT 4000 TSRA BKN012 CB"
  }
]